[{"OBJECT_NAME":"STARLINK-31323","OBJECT_ID":"2024-020G","EPOCH":"2026-03-09T21:26:58.632288","MEAN_MOTION":15.30197187,"ECCENTRICITY":7.152e-5,"INCLINATION":53.162,"RA_OF_ASC_NODE":321.3789,"ARG_OF_PERICENTER":64.5266,"MEAN_ANOMALY":295.5809,"EPHEMERIS_TYPE":0,"CLASSIFICATION_TYPE":"U","NORAD_CAT_ID":58882,"ELEMENT_SET_NO":999,"REV_AT_EPOCH":11810,"BSTAR":2.7795841e-5,"MEAN_MOTION_DOT":4.64e-6,"MEAN_MOTION_DDOT":0},{"OBJECT_NAME":"NUSAT-48 (HENRIETTA LEAVITT)","OBJECT_ID":"2024-149AG","EPOCH":"2026-03-09T19:19:17.269536","MEAN_MOTION":15.29812597,"ECCENTRICITY":0.00027538,"INCLINATION":97.3923,"RA_OF_ASC_NODE":150.8264,"ARG_OF_PERICENTER":263.3026,"MEAN_ANOMALY":96.7901,"EPHEMERIS_TYPE":0,"CLASSIFICATION_TYPE":"U","NORAD_CAT_ID":60498,"ELEMENT_SET_NO":999,"REV_AT_EPOCH":8694,"BSTAR":0.00045211745,"MEAN_MOTION_DOT":0.00012988,"MEAN_MOTION_DDOT":0}]
